LEMUR-2-ANDIS           
1 42838U 17042P   26068.55941107  .00023598  00000+0  79875-3 0  9998
2 42838  97.3659 249.7950 0009101   4.3248 355.8070 15.30557934473198
STARLINK-33689          
1 63322U 25057R   26067.92109216  .00049711  00000+0  18043-2 0  9995
2 63322  42.9984  34.8610 0001513 264.9335  95.1344 15.27571256 55667
